# GM,diameter,a,e,i,om,w,ma
,,3.044158201377876,.9822675576068547,14.59627549946165,53.00487075600994,49.40000590548593,93.80719760455382
,,,1.0,26.91,81.77,22.26,
,,,1.0,130.87,315.75,45.72,
,,,1.0,143.78,3.21,82.14,
,,,1.0,143.26,7.07,84.44,
,,,1.0,72.63,73.13,60.46,
,,,1.0,145.65,5.51,84.65,
,,,1.0,76.08,72.71,62.84,
,,,1.0,143.34,6.21,82.93,
,,,1.0,144.16,11.12,88.26,
,,,1.0,143.15,6.22,83.41,
,,,1.0,134.01,334.45,58.81,
,,,1.0,143.71,7.20,84.98,
,,,1.0,141.91,19.02,94.37,
,,689.0214146061786,.9958459138301063,91.94350578111045,302.7973934495474,117.788138715307,.01003959228749905
,,,1.0,143.32,14.98,92.24,
,,,1.0,142.42,14.92,91.98,
,,,1.0,136.44,27.46,100.07,
,,,1.0,144.07,359.85,79.56,
,,,1.0,144.32,326.76,51.08,
,,,1.0,141.12,16.19,92.18,
,,,1.0,141.71,13.45,90.68,
,,,1.0,144.99,344.26,66.07,
,,6.133054477482365,.7101497213234979,16.8959165351062,144.2484318871166,15.35910338960665,.07101025867219068
,,190.4304141392194,.9895341773528563,40.54360999168678,302.2144171350504,234.634031722538,359.9955558503502
,,,1.0,173.01,252.00,64.63,
,,6.297442559664529,.467141987174565,19.17831188282623,94.59664609008054,194.6794126822622,53.35585242669814
,,,1.0,145.83,0.61,79.55,
,,,1.0,145.19,5.31,83.48,
,,,1.0,145.60,349.40,69.13,
,,,1.0,142.57,322.90,42.08,
,,,1.0,138.58,330.50,54.80,
,,,1.0,73.75,74.29,57.20,
,,,1.0,144.25,358.88,78.82,
,,,1.0,146.58,344.36,64.57,
,,2365.203591179088,.9997651805115564,92.73610774844845,211.3431299685535,351.1877705250565,.0002469291509949923
,,3842.614046632679,.9986165776116271,148.3225989507734,233.2253611718543,141.0185424220879,.001244986069843377
,,,1.0,145.00,2.44,80.83,
,,,1.0,144.04,0.54,80.27,
,,,1.0,141.39,18.64,97.29,
,,,1.0,144.60,357.27,77.01,
,,,1.0,142.09,16.06,92.06,
,,1340.279335534565,.9977634579727875,134.2819333085377,161.2393747739688,302.4917212979199,.003223624309496487
,,,1.0,145.51,4.41,82.01,
,,,1.0,144.43,358.51,77.76,
,,,1.0,73.15,73.89,56.72,
,,,1.0,142.24,6.38,87.38,
,,,1.0,144.50,354.83,73.42,
,,,1.0,144.51,5.53,84.47,
,,,1.0,144.21,353.05,71.13,
,,,1.0,143.92,355.47,75.70,
,,216.3153117048147,.9918999288969116,144.2627760517462,243.8099839582949,143.4563257724113,359.9878314911963
,,5.556543044243771,.6594600653250364,17.45904924578262,.9524858801745117,118.2012720640865,9.329919261364985
,,,1.0,139.04,337.16,62.02,
,,,1.0,138.84,3.54,92.64,
,,,1.0,143.98,0.22,79.77,
,,,1.0,144.47,357.95,75.42,
,,,1.0,144.32,357.28,74.27,
,,-5395.860030574562,1.001119489606132,83.19421320429628,95.03540629070453,232.7667847605426,-.0002495995778044248
,,,1.0,24.50,80.94,21.86,
,,,1.0,144.19,357.72,71.15,
,,,1.0,136.56,18.49,98.27,
,,4.708886826359565,.1243843461724506,21.19123211818199,124.9469906151359,185.5453720429082,301.7143599980866
,,12.3241172067572,.6513758601067797,20.5114508486757,8.260717348221702,181.0118833143877,.01297346049768967
,,,1.0,23.02,85.31,19.10,
,,3.529653180549439,.3370836608387048,12.38685238943066,184.0982193467467,31.36461880789305,357.5401626499302
,,,1.0,144.57,4.20,82.38,
,,,1.0,74.13,75.03,56.09,
,,,1.0,145.72,3.42,84.83,
,,,1.0,144.58,5.67,84.02,
,,4.819252372680971,.4538419053817532,18.55498039962364,299.2680593264274,313.9340982573091,350.8207156404659
,,,1.0,148.07,353.13,77.54,
,,,1.0,168.6819143012028,355.3213658275006,191.4949642552425,
,,,1.0,144.38,359.35,79.07,
,,5.68428411554105,.5815691838471712,12.87014997459182,.1309185539743379,310.1369878279776,7.898783525615506
,,,1.0,145.50,0.00,82.61,
,,,1.0,143.75,2.74,78.80,
,,,1.0,143.82,0.70,79.49,
,,,1.0,143.01,3.47,80.13,
,,,1.0,143.95,4.09,81.38,
,,7.817536442333763,.8431183899257025,31.88449912918633,309.9521628307592,117.4138752619725,357.4621264236912
,,-1073.384759049959,1.002110711914092,45.8097769577079,228.1278158699325,359.9676409243813,-.002083236870904896
,,,1.0,143.58,348.56,71.81,
,,,1.0,143.55,1.27,79.86,
,,,1.0,144.61,5.68,84.54,
,,,1.0,144.47,5.85,84.69,
,,,1.0,72.12,71.46,59.44,
,,,1.0,143.90,2.91,81.44,
,,,1.0,143.39,5.04,82.58,
,,,1.0,143.07,3.86,80.86,
,,,1.0,143.37,9.93,86.59,
,,,1.0,146.41,356.70,79.56,
,,,1.0,142.16,6.41,83.51,
,,,1.0,141.01,15.99,89.45,
,,-2760.770568108962,1.001603004434115,53.87673380850174,72.11538392763627,296.4425088959431,.000431070537076946
,,-3164.066487555777,1.000790580415767,92.62000664535464,49.40242634827685,328.0779408975118,-.0005835224114594851
,,1818.424976210752,.99824649457834,111.3334642870689,116.5968452345918,233.6039917779509,359.997682870108
,,,1.0,117.60,169.23,98.18,
,,,1.0,144.88,4.62,84.24,
,,,1.0,141.16,14.54,87.53,
,,,1.0,143.53,13.50,90.49,
,,,1.0,141.26,14.16,88.13,
,,,1.0,143.55,4.77,83.31,
,,,1.0,142.79,7.62,84.45,
,,,1.0,143.13,0.13,75.62,
,,,1.0,143.29,5.31,81.64,
,,,1.0,142.57,6.05,81.97,
,,,1.0,140.72,17.35,90.56,
,,,1.0,142.46,9.02,85.68,
,,,1.0,141.34,15.29,91.59,
,,,1.0,143.81,8.77,86.78,
,,,1.0,142.77,6.41,84.54,
,,,1.0,141.71,11.50,86.75,
,,,1.0,144.63,4.79,83.94,
,,550.7769112074421,.9973454400139782,143.242574898384,101.7601579729661,338.4098049564904,.004193552739538717
,,-1968.773204810868,1.001012786768707,101.022314959069,239.245970548371,48.03491747238701,-.0005663828313148551
,,,1.0,140.31,15.42,90.98,
,,,1.0,146.71,345.24,66.63,
,,,1.0,143.97,333.20,56.57,
,,,1.0,138.43,22.17,96.20,
,,,1.0,126.64,17.51,87.94,
,,,1.0,140.61,317.61,44.99,
,,153.6720342777631,.9768585136447149,54.87692507809005,231.6150732300075,122.8942086977272,359.973653672976
,,,1.0,150.1404787625302,27.30519676905302,120.8111708974429,
,,-4229.669328754716,1.000185122806876,111.823269866082,148.726839877752,62.59437366537016,.0001514579242937283
,,,1.0,130.31,37.31,107.15,
,,,1.0,130.40,41.24,111.22,
,,,1.0,144.97,356.10,76.37,
,,,1.0,145.12,325.64,43.46,
,,,1.0,144.81,3.37,82.72,
,,,1.0,145.20,346.60,65.57,
,,,1.0,144.87,4.27,82.70,
,,,1.0,130.11,318.52,47.08,
,,424.4728951191797,.9963371278047892,43.02867321658418,283.3583957460626,19.98462864085778,359.9965730950604
,,-3101.673836545953,1.000783912743033,30.17042481792592,318.5087305741682,95.61175651874659,-.0003519607143802121
,,,1.0,146.75,353.43,69.92,
,,,1.0,138.72,342.68,69.09,
,,,1.0,132.33,319.03,46.01,
,,,1.0,144.20,356.06,75.64,
,,,1.0,144.24,357.01,76.52,
,,,1.0,145.19,3.71,81.87,
,,-8953.846942964639,1.000019068501381,77.83699331528216,267.4147914157445,155.974955723039,-5.676742521254185E-5
,,,1.0,144.30,358.59,77.59,
,,,1.0,144.02,357.50,76.39,
,,,1.0,144.56,5.33,84.22,
,,,1.0,136.10,17.11,92.44,
,,,1.0,144.00,355.03,71.10,
,,,1.0,144.42,355.69,74.71,
,,6885.584947845464,.9995986231476817,59.05038025239813,199.5470810514723,344.3818755711797,.0003970011860487245
,,5.613819866762106,.7023280819046082,160.0112054302113,218.6301430874063,249.3065480147983,.6910727083880095
,,,1.0,75.14,66.29,57.86,
,,,1.0,144.19,6.47,85.83,
,,3.496169675053849,.6112022864491333,11.86813965588769,213.6523205572419,128.0497055231258,5.249329251805686
,,-1613.986971355365,1.001958819423748,98.95913562913353,113.8872174384658,166.3410308711352,-.001981395999382307
,,-1688.744051929224,1.003038391712935,166.0327566665694,38.37079070854971,140.1441651871202,-.002733370021199429
,,6.236729119959189,.5080788554528548,39.62576996504705,36.14001794658473,305.7130479247201,8.563245404789031
,,97.43049434270566,.9730019417782896,10.13138449163037,281.5633776299258,182.1092209854215,359.9736090933549
,,,1.0,143.39,2.32,83.37,
,,,1.0,138.78,339.97,58.93,
,,,1.0,142.99,357.56,87.80,
,,,1.0,143.80,0.41,79.27,
,,,1.0,143.98,1.57,78.64,
,,,1.0,144.20,0.27,79.44,
,,,1.0,143.87,358.75,74.59,
,,,1.0,143.90,359.26,76.86,
,,,1.0,144.33,358.17,76.62,
,,,1.0,144.52,357.64,77.65,
,,,1.0,142.88,5.66,86.77,
,,,1.0,67.07,100.84,66.16,
,,,1.0,143.70,10.75,87.14,
,,,1.0,144.58,357.19,76.34,
,,,1.0,145.44,5.39,92.66,
,,,1.0,148.31,353.81,79.60,
,,1931.013662716484,.9987061728793264,84.87893745266958,180.1863431772802,276.5969144772994,359.999239487954
,,11.98894287969901,.6309376919269437,7.228671609562602,57.7620278648844,12.95394791724092,356.9031019300438
,,,1.0,137.33,319.52,53.25,
,,,1.0,145.39,3.09,82.84,
,,,1.0,71.68,74.91,55.57,
,,,1.0,144.43,10.23,87.04,
,,,1.0,144.51,1.57,81.79,
,,,1.0,146.57,356.90,81.23,
,,,1.0,144.88,4.96,82.81,
,,,1.0,144.37,358.99,77.01,
,,,1.0,144.00,8.59,93.66,
,,257.6478711033521,.989617976818166,31.11946785338356,335.7241990172002,253.4034629065696,359.9486358811816
,,,1.0,144.58,5.89,84.76,
,,,1.0,143.44,7.96,85.84,
,,,1.0,142.54,4.03,81.88,
,,,1.0,146.74,351.91,76.77,
,,,1.0,145.10,0.34,80.60,
,,,1.0,145.17,0.02,80.94,
,,,1.0,146.33,357.76,79.12,
,,,1.0,144.40,6.68,84.93,
,,,1.0,144.18,359.31,79.41,
,,-4130.456500446573,1.000245796580833,134.7933226625431,66.0268995598444,174.1152998829181,-.0002186555119781973
,,5.799453037545093,.7069120438227606,19.0053606053038,154.05559226,230.5867884786468,18.64611023166835
,,17989.46639723203,.9998262187172564,127.0746917261811,113.570606746035,133.5145135919945,359.9999523503283
,,583.8486158297101,.9989873327772469,152.7046320031656,226.7905322007733,292.6908941349947,359.9931255022823
,,,1.0,145.02,311.44,41.35,
,,,1.0,146.60,323.33,51.84,
,,,1.0,140.72,14.66,90.07,
,,6.334718700505952,.5585605151286649,26.49159498558765,301.0454629319366,186.9859576448396,359.820386954604
,,,1.0,42.61795466051777,255.2419526184071,101.2894130362497,
,,251.9599749090672,.9928386465672322,30.62940835386486,318.6635140306808,187.4181017635637,359.968481376658
,,,1.0,137.00,28.68,102.11,
,,,1.0,139.23,25.84,99.85,
,,,1.0,143.31,14.95,92.11,
,,,1.0,139.89,20.39,95.78,
,,,1.0,144.58,1.53,78.55,
,,,1.0,143.15,6.34,85.18,
,,,1.0,143.38,346.90,67.67,
,,,1.0,136.77,332.65,58.64,
,,,1.0,72.63,74.20,56.92,
,,,1.0,145.24,344.66,65.84,
,,-29448.42291341036,1.000168029759608,69.5638145248335,154.2873457031811,335.5192000672245,2.832297925475757E-5
,,,1.0,147.08,353.37,72.22,
,,,1.0,144.50,350.75,71.50,
,,,1.0,145.46,4.13,82.74,
,,,1.0,145.67,3.67,82.31,
,,,1.0,144.69,335.09,56.71,
,,,1.0,146.07,347.22,66.97,
,,,1.0,144.83,344.25,65.39,
,,,1.0,144.09,6.79,86.02,
,,,1.0,146.99,343.29,61.71,
,,,1.0,146.32,4.61,83.24,
,,,1.0,144.77,4.81,83.60,
